{
  "type": "FeatureCollection",
  "features": [
    {
      "type": "Feature",
      "properties": {
        "norad_id": 43783,
        "name": "KAZSTSAT",
        "group": "resource",
        "lat": -62.112019114182154,
        "lon": -158.56165961655418,
        "alt_km": 571.9110206657087,
        "timestamp": "2025-12-27T04:40:45.157799+00:00",
        "meta_object_name": "KAZSTSAT",
        "meta_object_id": "2018-099AB",
        "meta_epoch": "2025-12-26T21:11:29.558400",
        "meta_mean_motion": 14.99376275,
        "meta_eccentricity": 0.00064415,
        "meta_inclination": 97.4508,
        "meta_ra_of_asc_node": 35.4573,
        "meta_arg_of_pericenter": 267.2673,
        "meta_mean_anomaly": 92.7814,
        "meta_ephemeris_type": 0,
        "meta_classification_type": "U",
        "meta_norad_cat_id": 43783,
        "meta_element_set_no": 999,
        "meta_rev_at_epoch": 38548,
        "meta_bstar": 8.4994918e-05,
        "meta_mean_motion_dot": 9.84e-06,
        "meta_mean_motion_ddot": 0,
        "tle_line1": "1 43783U 18099AB  25360.88298100  .00000984  00000+0  84995-4 0  9993",
        "tle_line2": "2 43783  97.4508  35.4573 0006441 267.2673  92.7814 14.99376275385487"
      },
      "geometry": {
        "type": "Point",
        "coordinates": [
          -158.56165961655418,
          -62.112019114182154
        ]
      }
    },
    {
      "type": "Feature",
      "properties": {
        "norad_id": 43831,
        "name": "SAUDISAT 5A",
        "group": "resource",
        "lat": -45.84951328897448,
        "lon": -126.5165159742468,
        "alt_km": 502.3288968846091,
        "timestamp": "2025-12-27T04:40:45.157810+00:00",
        "meta_object_name": "SAUDISAT 5A",
        "meta_object_id": "2018-102A",
        "meta_epoch": "2025-12-26T22:58:08.298336",
        "meta_mean_motion": 15.25832411,
        "meta_eccentricity": 0.00109172,
        "meta_inclination": 97.3331,
        "meta_ra_of_asc_node": 60.8733,
        "meta_arg_of_pericenter": 31.741,
        "meta_mean_anomaly": 328.4484,
        "meta_ephemeris_type": 0,
        "meta_classification_type": "U",
        "meta_norad_cat_id": 43831,
        "meta_element_set_no": 999,
        "meta_rev_at_epoch": 38939,
        "meta_bstar": 0.00026636615,
        "meta_mean_motion_dot": 6.754e-05,
        "meta_mean_motion_ddot": 0,
        "tle_line1": "1 43831U 18102A   25360.95704049  .00006754  00000+0  26637-3 0  9993",
        "tle_line2": "2 43831  97.3331  60.8733 0010917  31.7410 328.4484 15.25832411389395"
      },
      "geometry": {
        "type": "Point",
        "coordinates": [
          -126.5165159742468,
          -45.84951328897448
        ]
      }
    },
    {
      "type": "Feature",
      "properties": {
        "norad_id": 43833,
        "name": "SAUDISAT 5B",
        "group": "resource",
        "lat": -62.605756260625796,
        "lon": 78.27934024388087,
        "alt_km": 495.3355517886266,
        "timestamp": "2025-12-27T04:40:45.157820+00:00",
        "meta_object_name": "SAUDISAT 5B",
        "meta_object_id": "2018-102C",
        "meta_epoch": "2025-12-26T22:39:45.641664",
        "meta_mean_motion": 15.26177568,
        "meta_eccentricity": 0.00116866,
        "meta_inclination": 97.3425,
        "meta_ra_of_asc_node": 63.625,
        "meta_arg_of_pericenter": 33.7264,
        "meta_mean_anomaly": 326.4715,
        "meta_ephemeris_type": 0,
        "meta_classification_type": "U",
        "meta_norad_cat_id": 43833,
        "meta_element_set_no": 999,
        "meta_rev_at_epoch": 38950,
        "meta_bstar": 0.00027527654,
        "meta_mean_motion_dot": 7.058e-05,
        "meta_mean_motion_ddot": 0,
        "tle_line1": "1 43833U 18102C   25360.94427826  .00007058  00000+0  27528-3 0  9997",
        "tle_line2": "2 43833  97.3425  63.6250 0011686  33.7264 326.4715 15.26177568389503"
      },
      "geometry": {
        "type": "Point",
        "coordinates": [
          78.27934024388087,
          -62.605756260625796
        ]
      }
    },
    {
      "type": "Feature",
      "properties": {
        "norad_id": 44622,
        "name": "GAOFEN-10R",
        "group": "resource",
        "lat": 27.586305137130214,
        "lon": 132.98915740008715,
        "alt_km": 623.5021029084728,
        "timestamp": "2025-12-27T04:40:45.157830+00:00",
        "meta_object_name": "GAOFEN-10R",
        "meta_object_id": "2019-066A",
        "meta_epoch": "2025-12-26T23:08:15.222912",
        "meta_mean_motion": 14.82841536,
        "meta_eccentricity": 0.00068139,
        "meta_inclination": 98.0296,
        "meta_ra_of_asc_node": 308.5276,
        "meta_arg_of_pericenter": 359.6634,
        "meta_mean_anomaly": 0.4574,
        "meta_ephemeris_type": 0,
        "meta_classification_type": "U",
        "meta_norad_cat_id": 44622,
        "meta_element_set_no": 999,
        "meta_rev_at_epoch": 33685,
        "meta_bstar": 0.00025879755,
        "meta_mean_motion_dot": 2.041e-05,
        "meta_mean_motion_ddot": 0,
        "tle_line1": "1 44622U 19066A   25360.96406508  .00002041  00000+0  25880-3 0  9996",
        "tle_line2": "2 44622  98.0296 308.5276 0006813 359.6634   0.4574 14.82841536336856"
      },
      "geometry": {
        "type": "Point",
        "coordinates": [
          132.98915740008715,
          27.586305137130214
        ]
      }
    },
    {
      "type": "Feature",
      "properties": {
        "norad_id": 44804,
        "name": "CARTOSAT-3",
        "group": "resource",
        "lat": 45.304218189471705,
        "lon": 52.98695321843489,
        "alt_km": 495.01880096432706,
        "timestamp": "2025-12-27T04:40:45.157840+00:00",
        "meta_object_name": "CARTOSAT-3",
        "meta_object_id": "2019-081A",
        "meta_epoch": "2025-12-26T23:44:12.058080",
        "meta_mean_motion": 15.19272329,
        "meta_eccentricity": 0.00134607,
        "meta_inclination": 97.456,
        "meta_ra_of_asc_node": 60.3897,
        "meta_arg_of_pericenter": 38.1485,
        "meta_mean_anomaly": 322.07,
        "meta_ephemeris_type": 0,
        "meta_classification_type": "U",
        "meta_norad_cat_id": 44804,
        "meta_element_set_no": 999,
        "meta_rev_at_epoch": 33732,
        "meta_bstar": 0.00023330404,
        "meta_mean_motion_dot": 4.863e-05,
        "meta_mean_motion_ddot": 0,
        "tle_line1": "1 44804U 19081A   25360.98902845  .00004863  00000+0  23330-3 0  9994",
        "tle_line2": "2 44804  97.4560  60.3897 0013460  38.1485 322.0700 15.19272329337322"
      },
      "geometry": {
        "type": "Point",
        "coordinates": [
          52.98695321843489,
          45.304218189471705
        ]
      }
    },
    {
      "type": "Feature",
      "properties": {
        "norad_id": 44819,
        "name": "GAOFEN-12 01",
        "group": "resource",
        "lat": -52.389276980575,
        "lon": 17.362349657922966,
        "alt_km": 635.3394418699845,
        "timestamp": "2025-12-27T04:40:45.157851+00:00",
        "meta_object_name": "GAOFEN-12 01",
        "meta_object_id": "2019-082A",
        "meta_epoch": "2025-12-27T00:03:11.069280",
        "meta_mean_motion": 14.80674105,
        "meta_eccentricity": 0.00023506,
        "meta_inclination": 97.8125,
        "meta_ra_of_asc_node": 6.9088,
        "meta_arg_of_pericenter": 172.8839,
        "meta_mean_anomaly": 187.2408,
        "meta_ephemeris_type": 0,
        "meta_classification_type": "U",
        "meta_norad_cat_id": 44819,
        "meta_element_set_no": 999,
        "meta_rev_at_epoch": 32861,
        "meta_bstar": 8.6070174e-05,
        "meta_mean_motion_dot": 6.11e-06,
        "meta_mean_motion_ddot": 0,
        "tle_line1": "1 44819U 19082A   25361.00221145  .00000611  00000+0  86070-4 0  9990",
        "tle_line2": "2 44819  97.8125   6.9088 0002350 172.8839 187.2408 14.80674105328615"
      },
      "geometry": {
        "type": "Point",
        "coordinates": [
          17.362349657922966,
          -52.389276980575
        ]
      }
    },
    {
      "type": "Feature",
      "properties": {
        "norad_id": 44873,
        "name": "CSG-1",
        "group": "resource",
        "lat": 43.965907275279584,
        "lon": 9.978838412157765,
        "alt_km": 618.1857245375577,
        "timestamp": "2025-12-27T04:40:45.157865+00:00",
        "meta_object_name": "CSG-1",
        "meta_object_id": "2019-092A",
        "meta_epoch": "2025-12-26T23:12:34.782336",
        "meta_mean_motion": 14.82164076,
        "meta_eccentricity": 0.00014467,
        "meta_inclination": 97.8805,
        "meta_ra_of_asc_node": 182.077,
        "meta_arg_of_pericenter": 84.8201,
        "meta_mean_anomaly": 275.3178,
        "meta_ephemeris_type": 0,
        "meta_classification_type": "U",
        "meta_norad_cat_id": 44873,
        "meta_element_set_no": 999,
        "meta_rev_at_epoch": 32596,
        "meta_bstar": 0.00010183159,
        "meta_mean_motion_dot": 7.59e-06,
        "meta_mean_motion_ddot": 0,
        "tle_line1": "1 44873U 19092A   25360.96706924  .00000759  00000+0  10183-3 0  9992",
        "tle_line2": "2 44873  97.8805 182.0770 0001446  84.8201 275.3178 14.82164076325965"
      },
      "geometry": {
        "type": "Point",
        "coordinates": [
          9.978838412157765,
          43.965907275279584
        ]
      }
    }
  ]
}